VSP RF A1               
1 59135U 24043AP  26066.03073316  .00000577  00000+0  25199-4 0  9997
2 59135  97.5247 201.5379 0009431 234.6315 125.4042 15.26179596111403
STARLINK-31860          
1 59670U 24084S   26068.29977680  .00000063  00000+0  11822-4 0  9991
2 59670  43.0038  40.5216 0001168 233.4402 126.6342 15.27576635104331
